[{"OBJECT_NAME":"STARLETTE","OBJECT_ID":"1975-010A","EPOCH":"2026-03-07T03:48:50.899680","MEAN_MOTION":13.82349098,"ECCENTRICITY":0.0205563,"INCLINATION":49.8227,"RA_OF_ASC_NODE":147.3199,"ARG_OF_PERICENTER":85.9847,"MEAN_ANOMALY":276.4514,"EPHEMERIS_TYPE":0,"CLASSIFICATION_TYPE":"U","NORAD_CAT_ID":7646,"ELEMENT_SET_NO":999,"REV_AT_EPOCH":58042,"BSTAR":1.6599e-5,"MEAN_MOTION_DOT":-1.24e-6,"MEAN_MOTION_DDOT":0},{"OBJECT_NAME":"LAGEOS 1","OBJECT_ID":"1976-039A","EPOCH":"2026-03-06T08:42:03.404160","MEAN_MOTION":6.3866489,"ECCENTRICITY":0.00446609,"INCLINATION":109.8179,"RA_OF_ASC_NODE":144.1429,"ARG_OF_PERICENTER":324.2984,"MEAN_ANOMALY":62.3521,"EPHEMERIS_TYPE":0,"CLASSIFICATION_TYPE":"U","NORAD_CAT_ID":8820,"ELEMENT_SET_NO":999,"REV_AT_EPOCH":90657,"BSTAR":0,"MEAN_MOTION_DOT":-5.0e-8,"MEAN_MOTION_DDOT":0},{"OBJECT_NAME":"AJISAI (EGS)","OBJECT_ID":"1986-061A","EPOCH":"2026-03-07T03:22:45.395616","MEAN_MOTION":12.44515641,"ECCENTRICITY":0.0011257,"INCLINATION":50.008,"RA_OF_ASC_NODE":101.1859,"ARG_OF_PERICENTER":280.4363,"MEAN_ANOMALY":127.0737,"EPHEMERIS_TYPE":0,"CLASSIFICATION_TYPE":"U","NORAD_CAT_ID":16908,"ELEMENT_SET_NO":999,"REV_AT_EPOCH":46768,"BSTAR":6.0347e-5,"MEAN_MOTION_DOT":-8.9e-7,"MEAN_MOTION_DDOT":0},{"OBJECT_NAME":"COSMOS 1989 (ETALON 1)","OBJECT_ID":"1989-001C","EPOCH":"2026-03-06T14:54:11.143584","MEAN_MOTION":2.13156097,"ECCENTRICITY":0.00234164,"INCLINATION":64.8856,"RA_OF_ASC_NODE":75.7019,"ARG_OF_PERICENTER":217.5756,"MEAN_ANOMALY":242.2717,"EPHEMERIS_TYPE":0,"CLASSIFICATION_TYPE":"U","NORAD_CAT_ID":19751,"ELEMENT_SET_NO":999,"REV_AT_EPOCH":28918,"BSTAR":0,"MEAN_MOTION_DOT":-1.0e-8,"MEAN_MOTION_DDOT":0},{"OBJECT_NAME":"COSMOS 2024 (ETALON 2)","OBJECT_ID":"1989-039C","EPOCH":"2026-03-06T11:38:38.673312","MEAN_MOTION":2.1320461,"ECCENTRICITY":0.00204668,"INCLINATION":64.9963,"RA_OF_ASC_NODE":314.0759,"ARG_OF_PERICENTER":213.3998,"MEAN_ANOMALY":282.042,"EPHEMERIS_TYPE":0,"CLASSIFICATION_TYPE":"U","NORAD_CAT_ID":20026,"ELEMENT_SET_NO":999,"REV_AT_EPOCH":28631,"BSTAR":0,"MEAN_MOTION_DOT":-5.5e-7,"MEAN_MOTION_DDOT":0},{"OBJECT_NAME":"LAGEOS 2","OBJECT_ID":"1992-070B","EPOCH":"2026-03-06T12:41:43.319040","MEAN_MOTION":6.47293334,"ECCENTRICITY":0.0137767,"INCLINATION":52.6791,"RA_OF_ASC_NODE":331.5402,"ARG_OF_PERICENTER":142.4403,"MEAN_ANOMALY":82.1122,"EPHEMERIS_TYPE":0,"CLASSIFICATION_TYPE":"U","NORAD_CAT_ID":22195,"ELEMENT_SET_NO":999,"REV_AT_EPOCH":78877,"BSTAR":0,"MEAN_MOTION_DOT":-9.0e-8,"MEAN_MOTION_DDOT":0},{"OBJECT_NAME":"STELLA","OBJECT_ID":"1993-061B","EPOCH":"2026-03-07T03:13:46.498080","MEAN_MOTION":14.2746752,"ECCENTRICITY":0.00066,"INCLINATION":98.7846,"RA_OF_ASC_NODE":129.9679,"ARG_OF_PERICENTER":164.7163,"MEAN_ANOMALY":252.0397,"EPHEMERIS_TYPE":0,"CLASSIFICATION_TYPE":"U","NORAD_CAT_ID":22824,"ELEMENT_SET_NO":999,"REV_AT_EPOCH":69021,"BSTAR":1.3359e-5,"MEAN_MOTION_DOT":-1.2e-7,"MEAN_MOTION_DDOT":0},{"OBJECT_NAME":"LARETS","OBJECT_ID":"2003-042F","EPOCH":"2026-03-07T03:11:09.142080","MEAN_MOTION":14.63847746,"ECCENTRICITY":0.0012225,"INCLINATION":98.4011,"RA_OF_ASC_NODE":226.2629,"ARG_OF_PERICENTER":0.5943,"MEAN_ANOMALY":359.5271,"EPHEMERIS_TYPE":0,"CLASSIFICATION_TYPE":"U","NORAD_CAT_ID":27944,"ELEMENT_SET_NO":999,"REV_AT_EPOCH":19843,"BSTAR":3.0127e-5,"MEAN_MOTION_DOT":1.07e-6,"MEAN_MOTION_DDOT":0},{"OBJECT_NAME":"LARES","OBJECT_ID":"2012-006A","EPOCH":"2026-03-07T04:37:50.594880","MEAN_MOTION":12.54932184,"ECCENTRICITY":0.000745,"INCLINATION":69.4878,"RA_OF_ASC_NODE":106.464,"ARG_OF_PERICENTER":152.9628,"MEAN_ANOMALY":207.1788,"EPHEMERIS_TYPE":0,"CLASSIFICATION_TYPE":"U","NORAD_CAT_ID":38077,"ELEMENT_SET_NO":999,"REV_AT_EPOCH":64427,"BSTAR":2.3014e-6,"MEAN_MOTION_DOT":-3.8e-7,"MEAN_MOTION_DDOT":0},{"OBJECT_NAME":"LARES-2","OBJECT_ID":"2022-080A","EPOCH":"2026-03-06T00:34:32.699712","MEAN_MOTION":6.38965015,"ECCENTRICITY":0.00053097,"INCLINATION":70.1755,"RA_OF_ASC_NODE":340.7064,"ARG_OF_PERICENTER":356.7815,"MEAN_ANOMALY":3.2821,"EPHEMERIS_TYPE":0,"CLASSIFICATION_TYPE":"U","NORAD_CAT_ID":53105,"ELEMENT_SET_NO":999,"REV_AT_EPOCH":8507,"BSTAR":0,"MEAN_MOTION_DOT":-2.8e-7,"MEAN_MOTION_DDOT":0}]
